{
  "norad_id": 49730,
  "name": "STARLINK-3249",
  "history": [
    {
      "epoch": "2026-03-28T16:10:42.826656Z",
      "apogee_km": 540.7112026720552,
      "perigee_km": 538.7956388145512,
      "latitude_deg": -5.9800486179351294e-06,
      "longitude_deg": 5.31808534417997,
      "height_km": 540.3960956738198,
      "semi_major_axis_km": 6917.890420743303,
      "eccentricity": 0.00013845,
      "inclination_deg": 53.2169,
      "raan_deg": 74.0877,
      "arg_perigee_deg": 74.6824,
      "mean_anomaly_deg": 285.4321,
      "mean_motion_rev_day": 15.08836718
    },
    {
      "epoch": "2026-03-29T04:53:48.565248Z",
      "apogee_km": 540.7357488395155,
      "perigee_km": 538.8042692025974,
      "latitude_deg": 1.762340871904068e-05,
      "longitude_deg": 171.64277166266302,
      "height_km": 540.4202850359898,
      "semi_major_axis_km": 6917.907009021056,
      "eccentricity": 0.0001396,
      "inclination_deg": 53.2174,
      "raan_deg": 71.7086,
      "arg_perigee_deg": 75.2768,
      "mean_anomaly_deg": 284.8379,
      "mean_motion_rev_day": 15.08831291
    }
  ]
}